COSMOS 2251 DEB         
1 34343U 93036PR  26087.86417523  .00011141  00000+0  17914-2 0  9998
2 34343  74.0175 243.4175 0021195 133.5332 344.5324 14.71493779902904
COSMOS 2251 DEB         
1 34344U 93036PS  26087.69551340  .00003416  00000+0  15148-2 0  9999
2 34344  73.9761 281.0592 0154973  82.1576  43.8207 14.17217034875978
COSMOS 2251 DEB         
1 34346U 93036PU  26087.53101205  .00001464  00000+0  83441-3 0  9998
2 34346  73.9922 128.6085 0210718 283.1257 229.7717 14.00086255868908
COSMOS 2251 DEB         
1 34383U 93036PY  26087.39301493  .00097590  00000+0  38018-2 0  9998
2 34383  74.0242  77.1906 0012379 235.5064 253.6782 15.25434399907159
COSMOS 2251 DEB         
1 34387U 93036QC  26087.86286895  .00001370  00000+0  40422-3 0  9996
2 34387  74.0429  14.5944 0036758  87.2231 329.9634 14.44115646897132
COSMOS 2251 DEB         
1 34388U 93036QD  26087.86044610  .00003114  00000+0  80953-3 0  9995
2 34388  74.0409  23.9576 0010825  47.8067   9.9221 14.50043568896936
COSMOS 2251 DEB         
1 34389U 93036QE  26087.88597547  .00001274  00000+0  39570-3 0  9994
2 34389  74.0186  52.9355 0028718 145.6238 243.8070 14.41835314895425
COSMOS 2251 DEB         
1 34396U 93036QM  26087.60788056  .00015056  00000+0  21073-2 0  9990
2 34396  74.0271 276.7038 0004904 286.6696 144.0947 14.77562242899084
COSMOS 2251 DEB         
1 34409U 93036RA  26087.77997647  .00000675  00000+0  14624-3 0  9997
2 34409  74.0604 105.4025 0079409 154.2606  23.6181 14.58285786907385
COSMOS 2251 DEB         
1 34410U 93036RB  26087.82854730  .00110781  00000+0  32652-2 0  9990
2 34410  73.7335  33.2429 0024972 211.7065 148.2636 15.34205413913923
COSMOS 2251 DEB         
1 34412U 93036RD  26087.49361403  .00003598  00000+0  77581-3 0  9993
2 34412  73.9464 125.4999 0187614 198.1729 161.2667 14.48372233891815
COSMOS 2251 DEB         
1 34413U 93036RE  26087.73696723  .00002626  00000+0  98696-3 0  9998
2 34413  74.0292  72.2319 0088290 127.1403  49.2070 14.29885808886456
COSMOS 2251 DEB         
1 34420U 93036RM  26087.74317093  .00000755  00000+0  12524-3 0  9994
2 34420  74.0309 258.8688 0105486 351.7458  25.5881 14.68563386913260
COSMOS 2251 DEB         
1 34425U 93036RS  26087.74310992  .00003855  00000+0  75621-3 0  9991
2 34425  74.0188 211.2093 0026994 306.7625  53.1064 14.62850665902907
COSMOS 2251 DEB         
1 34430U 93036RX  26087.30170250  .00000943  00000+0  30162-3 0  9996
2 34430  74.0487 108.5455 0059945 155.3782 205.0257 14.39953881894741
COSMOS 2251 DEB         
1 34431U 93036RY  26087.76993220  .00001216  00000+0  47724-3 0  9993
2 34431  74.0775 343.2126 0067715 300.9437  58.5069 14.29163603886572
