[{"OBJECT_NAME":"COSMOS 2251 DEB","OBJECT_ID":"1993-036PR","EPOCH":"2026-03-28T20:44:24.739872","MEAN_MOTION":14.71493779,"ECCENTRICITY":0.0021195,"INCLINATION":74.0175,"RA_OF_ASC_NODE":243.4175,"ARG_OF_PERICENTER":133.5332,"MEAN_ANOMALY":344.5324,"EPHEMERIS_TYPE":0,"CLASSIFICATION_TYPE":"U","NORAD_CAT_ID":34343,"ELEMENT_SET_NO":999,"REV_AT_EPOCH":90290,"BSTAR":0.0017914,"MEAN_MOTION_DOT":0.00011141,"MEAN_MOTION_DDOT":0},{"OBJECT_NAME":"COSMOS 2251 DEB","OBJECT_ID":"1993-036PS","EPOCH":"2026-03-28T16:41:32.357760","MEAN_MOTION":14.17217034,"ECCENTRICITY":0.0154973,"INCLINATION":73.9761,"RA_OF_ASC_NODE":281.0592,"ARG_OF_PERICENTER":82.1576,"MEAN_ANOMALY":43.8207,"EPHEMERIS_TYPE":0,"CLASSIFICATION_TYPE":"U","NORAD_CAT_ID":34344,"ELEMENT_SET_NO":999,"REV_AT_EPOCH":87597,"BSTAR":0.0015148,"MEAN_MOTION_DOT":3.416e-5,"MEAN_MOTION_DDOT":0},{"OBJECT_NAME":"COSMOS 2251 DEB","OBJECT_ID":"1993-036PU","EPOCH":"2026-03-28T12:44:39.441120","MEAN_MOTION":14.00086255,"ECCENTRICITY":0.0210718,"INCLINATION":73.9922,"RA_OF_ASC_NODE":128.6085,"ARG_OF_PERICENTER":283.1257,"MEAN_ANOMALY":229.7717,"EPHEMERIS_TYPE":0,"CLASSIFICATION_TYPE":"U","NORAD_CAT_ID":34346,"ELEMENT_SET_NO":999,"REV_AT_EPOCH":86890,"BSTAR":0.00083441,"MEAN_MOTION_DOT":1.464e-5,"MEAN_MOTION_DDOT":0},{"OBJECT_NAME":"COSMOS 2251 DEB","OBJECT_ID":"1993-036PY","EPOCH":"2026-03-28T09:25:56.489952","MEAN_MOTION":15.25434399,"ECCENTRICITY":0.0012379,"INCLINATION":74.0242,"RA_OF_ASC_NODE":77.1906,"ARG_OF_PERICENTER":235.5064,"MEAN_ANOMALY":253.6782,"EPHEMERIS_TYPE":0,"CLASSIFICATION_TYPE":"U","NORAD_CAT_ID":34383,"ELEMENT_SET_NO":999,"REV_AT_EPOCH":90715,"BSTAR":0.0038018,"MEAN_MOTION_DOT":0.0009759,"MEAN_MOTION_DDOT":0},{"OBJECT_NAME":"COSMOS 2251 DEB","OBJECT_ID":"1993-036QC","EPOCH":"2026-03-28T20:42:31.877280","MEAN_MOTION":14.44115646,"ECCENTRICITY":0.0036758,"INCLINATION":74.0429,"RA_OF_ASC_NODE":14.5944,"ARG_OF_PERICENTER":87.2231,"MEAN_ANOMALY":329.9634,"EPHEMERIS_TYPE":0,"CLASSIFICATION_TYPE":"U","NORAD_CAT_ID":34387,"ELEMENT_SET_NO":999,"REV_AT_EPOCH":89713,"BSTAR":0.00040422,"MEAN_MOTION_DOT":1.37e-5,"MEAN_MOTION_DDOT":0},{"OBJECT_NAME":"COSMOS 2251 DEB","OBJECT_ID":"1993-036QD","EPOCH":"2026-03-28T20:39:02.543040","MEAN_MOTION":14.50043568,"ECCENTRICITY":0.0010825,"INCLINATION":74.0409,"RA_OF_ASC_NODE":23.9576,"ARG_OF_PERICENTER":47.8067,"MEAN_ANOMALY":9.9221,"EPHEMERIS_TYPE":0,"CLASSIFICATION_TYPE":"U","NORAD_CAT_ID":34388,"ELEMENT_SET_NO":999,"REV_AT_EPOCH":89693,"BSTAR":0.00080953,"MEAN_MOTION_DOT":3.114e-5,"MEAN_MOTION_DDOT":0},{"OBJECT_NAME":"COSMOS 2251 DEB","OBJECT_ID":"1993-036QE","EPOCH":"2026-03-28T21:15:48.280608","MEAN_MOTION":14.41835314,"ECCENTRICITY":0.0028718,"INCLINATION":74.0186,"RA_OF_ASC_NODE":52.9355,"ARG_OF_PERICENTER":145.6238,"MEAN_ANOMALY":243.807,"EPHEMERIS_TYPE":0,"CLASSIFICATION_TYPE":"U","NORAD_CAT_ID":34389,"ELEMENT_SET_NO":999,"REV_AT_EPOCH":89542,"BSTAR":0.0003957,"MEAN_MOTION_DOT":1.274e-5,"MEAN_MOTION_DDOT":0},{"OBJECT_NAME":"COSMOS 2251 DEB","OBJECT_ID":"1993-036QM","EPOCH":"2026-03-28T14:35:20.880384","MEAN_MOTION":14.77562242,"ECCENTRICITY":0.0004904,"INCLINATION":74.0271,"RA_OF_ASC_NODE":276.7038,"ARG_OF_PERICENTER":286.6696,"MEAN_ANOMALY":144.0947,"EPHEMERIS_TYPE":0,"CLASSIFICATION_TYPE":"U","NORAD_CAT_ID":34396,"ELEMENT_SET_NO":999,"REV_AT_EPOCH":89908,"BSTAR":0.0021073,"MEAN_MOTION_DOT":0.00015056,"MEAN_MOTION_DDOT":0},{"OBJECT_NAME":"COSMOS 2251 DEB","OBJECT_ID":"1993-036RA","EPOCH":"2026-03-28T18:43:09.967008","MEAN_MOTION":14.58285786,"ECCENTRICITY":0.0079409,"INCLINATION":74.0604,"RA_OF_ASC_NODE":105.4025,"ARG_OF_PERICENTER":154.2606,"MEAN_ANOMALY":23.6181,"EPHEMERIS_TYPE":0,"CLASSIFICATION_TYPE":"U","NORAD_CAT_ID":34409,"ELEMENT_SET_NO":999,"REV_AT_EPOCH":90738,"BSTAR":0.00014624,"MEAN_MOTION_DOT":6.75e-6,"MEAN_MOTION_DDOT":0},{"OBJECT_NAME":"COSMOS 2251 DEB","OBJECT_ID":"1993-036RB","EPOCH":"2026-03-28T19:53:06.486720","MEAN_MOTION":15.34205413,"ECCENTRICITY":0.0024972,"INCLINATION":73.7335,"RA_OF_ASC_NODE":33.2429,"ARG_OF_PERICENTER":211.7065,"MEAN_ANOMALY":148.2636,"EPHEMERIS_TYPE":0,"CLASSIFICATION_TYPE":"U","NORAD_CAT_ID":34410,"ELEMENT_SET_NO":999,"REV_AT_EPOCH":91392,"BSTAR":0.0032652,"MEAN_MOTION_DOT":0.00110781,"MEAN_MOTION_DDOT":0},{"OBJECT_NAME":"COSMOS 2251 DEB","OBJECT_ID":"1993-036RD","EPOCH":"2026-03-28T11:50:48.252192","MEAN_MOTION":14.48372233,"ECCENTRICITY":0.0187614,"INCLINATION":73.9464,"RA_OF_ASC_NODE":125.4999,"ARG_OF_PERICENTER":198.1729,"MEAN_ANOMALY":161.2667,"EPHEMERIS_TYPE":0,"CLASSIFICATION_TYPE":"U","NORAD_CAT_ID":34412,"ELEMENT_SET_NO":999,"REV_AT_EPOCH":89181,"BSTAR":0.00077581,"MEAN_MOTION_DOT":3.598e-5,"MEAN_MOTION_DDOT":0},{"OBJECT_NAME":"COSMOS 2251 DEB","OBJECT_ID":"1993-036RE","EPOCH":"2026-03-28T17:41:13.968672","MEAN_MOTION":14.29885808,"ECCENTRICITY":0.008829,"INCLINATION":74.0292,"RA_OF_ASC_NODE":72.2319,"ARG_OF_PERICENTER":127.1403,"MEAN_ANOMALY":49.207,"EPHEMERIS_TYPE":0,"CLASSIFICATION_TYPE":"U","NORAD_CAT_ID":34413,"ELEMENT_SET_NO":999,"REV_AT_EPOCH":88645,"BSTAR":0.00098696,"MEAN_MOTION_DOT":2.626e-5,"MEAN_MOTION_DDOT":0},{"OBJECT_NAME":"COSMOS 2251 DEB","OBJECT_ID":"1993-036RM","EPOCH":"2026-03-28T17:50:09.968352","MEAN_MOTION":14.68563386,"ECCENTRICITY":0.0105486,"INCLINATION":74.0309,"RA_OF_ASC_NODE":258.8688,"ARG_OF_PERICENTER":351.7458,"MEAN_ANOMALY":25.5881,"EPHEMERIS_TYPE":0,"CLASSIFICATION_TYPE":"U","NORAD_CAT_ID":34420,"ELEMENT_SET_NO":999,"REV_AT_EPOCH":91326,"BSTAR":0.00012524,"MEAN_MOTION_DOT":7.55e-6,"MEAN_MOTION_DDOT":0},{"OBJECT_NAME":"COSMOS 2251 DEB","OBJECT_ID":"1993-036RS","EPOCH":"2026-03-28T17:50:04.697088","MEAN_MOTION":14.62850665,"ECCENTRICITY":0.0026994,"INCLINATION":74.0188,"RA_OF_ASC_NODE":211.2093,"ARG_OF_PERICENTER":306.7625,"MEAN_ANOMALY":53.1064,"EPHEMERIS_TYPE":0,"CLASSIFICATION_TYPE":"U","NORAD_CAT_ID":34425,"ELEMENT_SET_NO":999,"REV_AT_EPOCH":90290,"BSTAR":0.00075621,"MEAN_MOTION_DOT":3.855e-5,"MEAN_MOTION_DDOT":0},{"OBJECT_NAME":"COSMOS 2251 DEB","OBJECT_ID":"1993-036RX","EPOCH":"2026-03-28T07:14:27.096000","MEAN_MOTION":14.39953881,"ECCENTRICITY":0.0059945,"INCLINATION":74.0487,"RA_OF_ASC_NODE":108.5455,"ARG_OF_PERICENTER":155.3782,"MEAN_ANOMALY":205.0257,"EPHEMERIS_TYPE":0,"CLASSIFICATION_TYPE":"U","NORAD_CAT_ID":34430,"ELEMENT_SET_NO":999,"REV_AT_EPOCH":89474,"BSTAR":0.00030162,"MEAN_MOTION_DOT":9.43e-6,"MEAN_MOTION_DDOT":0},{"OBJECT_NAME":"COSMOS 2251 DEB","OBJECT_ID":"1993-036RY","EPOCH":"2026-03-28T18:28:42.142080","MEAN_MOTION":14.29163603,"ECCENTRICITY":0.0067715,"INCLINATION":74.0775,"RA_OF_ASC_NODE":343.2126,"ARG_OF_PERICENTER":300.9437,"MEAN_ANOMALY":58.5069,"EPHEMERIS_TYPE":0,"CLASSIFICATION_TYPE":"U","NORAD_CAT_ID":34431,"ELEMENT_SET_NO":999,"REV_AT_EPOCH":88657,"BSTAR":0.00047724,"MEAN_MOTION_DOT":1.216e-5,"MEAN_MOTION_DDOT":0}]
